{"type": "FeatureCollection", "features": [ {"type": "Feature", "properties": {"norad_id": 66998, "name": "2025-292F", "group": "last-30-days", "lat": 61.7294387827034, "lon": -100.20046995496817, "alt_km": 553.3494998098286, "timestamp": "2025-12-18T19:29:51.289169+00:00", "meta": {"OBJECT_NAME": "2025-292F", "OBJECT_ID": "2025-292F", "EPOCH": "2025-12-18T06:12:38.702592", "MEAN_MOTION": 15.04883543, "ECCENTRICITY": 0.00145379, "INCLINATION": 97.6567, "RA_OF_ASC_NODE": 64.7641, "ARG_OF_PERICENTER": 257.1886, "MEAN_ANOMALY": 102.7716, "EPHEMERIS_TYPE": 0, "CLASSIFICATION_TYPE": "U", "NORAD_CAT_ID": 66998, "ELEMENT_SET_NO": 999, "REV_AT_EPOCH": 122, "BSTAR": 0.00033031096, "MEAN_MOTION_DOT": 4.621e-05, "MEAN_MOTION_DDOT": 0}, "tle": {"line1": "1 66998U 25292F   25352.25878128  .00004621  00000+0  33031-3 0  9991", "line2": "2 66998  97.6567  64.7641 0014537 257.1886 102.7716 15.04883543  1225"}}, "geometry": {"type": "Point", "coordinates": [-100.20046995496817, 61.7294387827034]}}, {"type": "Feature", "properties": {"norad_id": 66999, "name": "2025-292G", "group": "last-30-days", "lat": 59.829564997020725, "lon": -101.30337518769187, "alt_km": 553.1351762293907, "timestamp": "2025-12-18T19:29:51.289179+00:00", "meta": {"OBJECT_NAME": "2025-292G", "OBJECT_ID": "2025-292G", "EPOCH": "2025-12-18T06:12:09.400896", "MEAN_MOTION": 15.04947286, "ECCENTRICITY": 0.00140565, "INCLINATION": 97.6575, "RA_OF_ASC_NODE": 64.7654, "ARG_OF_PERICENTER": 259.3232, "MEAN_ANOMALY": 100.6412, "EPHEMERIS_TYPE": 0, "CLASSIFICATION_TYPE": "U", "NORAD_CAT_ID": 66999, "ELEMENT_SET_NO": 999, "REV_AT_EPOCH": 122, "BSTAR": 0.00032992262, "MEAN_MOTION_DOT": 4.623e-05, "MEAN_MOTION_DDOT": 0}, "tle": {"line1": "1 66999U 25292G   25352.25844214  .00004623  00000+0  32992-3 0  9998", "line2": "2 66999  97.6575  64.7654 0014056 259.3232 100.6412 15.04947286  1229"}}, "geometry": {"type": "Point", "coordinates": [-101.30337518769187, 59.829564997020725]}}, {"type": "Feature", "properties": {"norad_id": 67000, "name": "2025-292H", "group": "last-30-days", "lat": 59.82952244585931, "lon": -101.3029012460533, "alt_km": 553.1455885121586, "timestamp": "2025-12-18T19:29:51.289189+00:00", "meta": {"OBJECT_NAME": "2025-292H", "OBJECT_ID": "2025-292H", "EPOCH": "2025-12-17T15:50:27.314304", "MEAN_MOTION": 15.04941506, "ECCENTRICITY": 0.00140318, "INCLINATION": 97.6577, "RA_OF_ASC_NODE": 64.1722, "ARG_OF_PERICENTER": 261.5567, "MEAN_ANOMALY": 98.4069, "EPHEMERIS_TYPE": 0, "CLASSIFICATION_TYPE": "U", "NORAD_CAT_ID": 67000, "ELEMENT_SET_NO": 999, "REV_AT_EPOCH": 100, "BSTAR": 0.00033244641, "MEAN_MOTION_DOT": 4.658e-05, "MEAN_MOTION_DDOT": 0}, "tle": {"line1": "1 67000U 25292H   25351.66003836  .00004658  00000+0  33245-3 0  9993", "line2": "2 67000  97.6577  64.1722 0014031 261.5567  98.4069 15.04941506  1001"}}, "geometry": {"type": "Point", "coordinates": [-101.3029012460533, 59.82952244585931]}}, {"type": "Feature", "properties": {"norad_id": 67001, "name": "2025-292J", "group": "last-30-days", "lat": 76.55251008306779, "lon": -80.4567081008217, "alt_km": 554.3200933320004, "timestamp": "2025-12-18T19:29:51.289202+00:00", "meta": {"OBJECT_NAME": "2025-292J", "OBJECT_ID": "2025-292J", "EPOCH": "2025-12-18T06:16:40.918080", "MEAN_MOTION": 15.04362461, "ECCENTRICITY": 0.00142515, "INCLINATION": 97.6567, "RA_OF_ASC_NODE": 64.7604, "ARG_OF_PERICENTER": 247.923, "MEAN_ANOMALY": 112.0483, "EPHEMERIS_TYPE": 0, "CLASSIFICATION_TYPE": "U", "NORAD_CAT_ID": 67001, "ELEMENT_SET_NO": 999, "REV_AT_EPOCH": 122, "BSTAR": 0.00035051848, "MEAN_MOTION_DOT": 4.839e-05, "MEAN_MOTION_DDOT": 0}, "tle": {"line1": "1 67001U 25292J   25352.26158470  .00004839  00000+0  35052-3 0  9995", "line2": "2 67001  97.6567  64.7604 0014251 247.9230 112.0483 15.04362461  1229"}}, "geometry": {"type": "Point", "coordinates": [-80.4567081008217, 76.55251008306779]}}, {"type": "Feature", "properties": {"norad_id": 67002, "name": "ZK-1A R/B", "group": "last-30-days", "lat": -52.949649160228034, "lon": -124.271959514793, "alt_km": 451.6001054139242, "timestamp": "2025-12-18T19:29:51.289234+00:00", "meta": {"OBJECT_NAME": "ZK-1A R/B", "OBJECT_ID": "2025-292K", "EPOCH": "2025-12-18T04:35:51.387936", "MEAN_MOTION": 15.56337794, "ECCENTRICITY": 0.0213767, "INCLINATION": 97.7234, "RA_OF_ASC_NODE": 65.4127, "ARG_OF_PERICENTER": 345.9205, "MEAN_ANOMALY": 13.6145, "EPHEMERIS_TYPE": 0, "CLASSIFICATION_TYPE": "U", "NORAD_CAT_ID": 67002, "ELEMENT_SET_NO": 999, "REV_AT_EPOCH": 124, "BSTAR": 0.00073146183, "MEAN_MOTION_DOT": 0.00151802, "MEAN_MOTION_DDOT": 8.225292e-06}, "tle": {"line1": "1 67002U 25292K   25352.19156699  .00151802  82253-5  73146-3 0  9994", "line2": "2 67002  97.7234  65.4127 0213767 345.9205  13.6145 15.56337794  1245"}}, "geometry": {"type": "Point", "coordinates": [-124.271959514793, -52.949649160228034]}}, {"type": "Feature", "properties": {"norad_id": 67003, "name": "STARLINK-35660", "group": "last-30-days", "lat": -54.773654851500375, "lon": 157.24438804412804, "alt_km": 291.9782526427489, "timestamp": "2025-12-18T19:29:51.289246+00:00", "meta": {"OBJECT_NAME": "STARLINK-35660", "OBJECT_ID": "2025-293A", "EPOCH": "2025-12-17T20:00:01.999872", "MEAN_MOTION": 15.96949357, "ECCENTRICITY": 0.00041285, "INCLINATION": 69.9938, "RA_OF_ASC_NODE": 309.0388, "ARG_OF_PERICENTER": 267.0417, "MEAN_ANOMALY": 109.6865, "EPHEMERIS_TYPE": 0, "CLASSIFICATION_TYPE": "U", "NORAD_CAT_ID": 67003, "ELEMENT_SET_NO": 999, "REV_AT_EPOCH": 238, "BSTAR": -0.0021949135, "MEAN_MOTION_DOT": -0.00948175, "MEAN_MOTION_DDOT": 0.00028832242}, "tle": {"line1": "1 67003U 25293A   25351.83335648 -.00948175  28832-3 -21949-2 0  9992", "line2": "2 67003  69.9938 309.0388 0004128 267.0417 109.6865 15.96949357  2381"}}, "geometry": {"type": "Point", "coordinates": [157.24438804412804, -54.773654851500375]}}, {"type": "Feature", "properties": {"norad_id": 67004, "name": "STARLINK-35913", "group": "last-30-days", "lat": -56.24304694617524, "lon": 159.2127639637449, "alt_km": 291.73197436548253, "timestamp": "2025-12-18T19:29:51.289259+00:00", "meta": {"OBJECT_NAME": "STARLINK-35913", "OBJECT_ID": "2025-293B", "EPOCH": "2025-12-17T20:00:01.999872", "MEAN_MOTION": 15.97007544, "ECCENTRICITY": 0.0004053, "INCLINATION": 69.9938, "RA_OF_ASC_NODE": 309.0368, "ARG_OF_PERICENTER": 264.5457, "MEAN_ANOMALY": 113.7697, "EPHEMERIS_TYPE": 0, "CLASSIFICATION_TYPE": "U", "NORAD_CAT_ID": 67004, "ELEMENT_SET_NO": 999, "REV_AT_EPOCH": 238, "BSTAR": -0.0021504018, "MEAN_MOTION_DOT": -0.00932001, "MEAN_MOTION_DDOT": 0.00027947769}, "tle": {"line1": "1 67004U 25293B   25351.83335648 -.00932001  27948-3 -21504-2 0  9998", "line2": "2 67004  69.9938 309.0368 0004053 264.5457 113.7697 15.97007544  2386"}}, "geometry": {"type": "Point", "coordinates": [159.2127639637449, -56.24304694617524]}}, {"type": "Feature", "properties": {"norad_id": 67005, "name": "STARLINK-36148", "group": "last-30-days", "lat": -57.73067770505401, "lon": 161.41794058758134, "alt_km": 291.5604407644214, "timestamp": "2025-12-18T19:29:51.289269+00:00", "meta": {"OBJECT_NAME": "STARLINK-36148", "OBJECT_ID": "2025-293C", "EPOCH": "2025-12-17T20:00:01.999872", "MEAN_MOTION": 15.97088495, "ECCENTRICITY": 0.00041461, "INCLINATION": 69.9939, "RA_OF_ASC_NODE": 309.0351, "ARG_OF_PERICENTER": 266.6812, "MEAN_ANOMALY": 113.3161, "EPHEMERIS_TYPE": 0, "CLASSIFICATION_TYPE": "U", "NORAD_CAT_ID": 67005, "ELEMENT_SET_NO": 999, "REV_AT_EPOCH": 238, "BSTAR": -0.0021761225, "MEAN_MOTION_DOT": -0.0094726, "MEAN_MOTION_DDOT": 0.00028823862}, "tle": {"line1": "1 67005U 25293C   25351.83335648 -.00947260  28824-3 -21761-2 0  9991", "line2": "2 67005  69.9939 309.0351 0004146 266.6812 113.3161 15.97088495  2387"}}, "geometry": {"type": "Point", "coordinates": [161.41794058758134, -57.73067770505401]}}, {"type": "Feature", "properties": {"norad_id": 67006, "name": "STARLINK-36156", "group": "last-30-days", "lat": -61.11872976725457, "lon": 167.511042085331, "alt_km": 291.1322931711238, "timestamp": "2025-12-18T19:29:51.289281+00:00", "meta": {"OBJECT_NAME": "STARLINK-36156", "OBJECT_ID": "2025-293D", "EPOCH": "2025-12-17T20:00:01.999872", "MEAN_MOTION": 15.97269332, "ECCENTRICITY": 0.00041045, "INCLINATION": 69.9938, "RA_OF_ASC_NODE": 309.0299, "ARG_OF_PERICENTER": 266.4594, "MEAN_ANOMALY": 117.5341, "EPHEMERIS_TYPE": 0, "CLASSIFICATION_TYPE": "U", "NORAD_CAT_ID": 67006, "ELEMENT_SET_NO": 999, "REV_AT_EPOCH": 238, "BSTAR": -0.0021807905, "MEAN_MOTION_DOT": -0.00958648, "MEAN_MOTION_DDOT": 0.00029524434}, "tle": {"line1": "1 67006U 25293D   25351.83335648 -.00958648  29524-3 -21808-2 0  9994", "line2": "2 67006  69.9938 309.0299 0004104 266.4594 117.5341 15.97269332  2384"}}, "geometry": {"type": "Point", "coordinates": [167.511042085331, -61.11872976725457]}}, {"type": "Feature", "properties": {"norad_id": 67007, "name": "STARLINK-36123", "group": "last-30-days", "lat": -59.62176702512961, "lon": 164.60368127087278, "alt_km": 291.32695306399273, "timestamp": "2025-12-18T19:29:51.289291+00:00", "meta": {"OBJECT_NAME": "STARLINK-36123", "OBJECT_ID": "2025-293E", "EPOCH": "2025-12-17T20:00:01.999872", "MEAN_MOTION": 15.97188271, "ECCENTRICITY": 0.00041101, "INCLINATION": 69.9936, "RA_OF_ASC_NODE": 309.032, "ARG_OF_PERICENTER": 265.4955, "MEAN_ANOMALY": 116.6939, "EPHEMERIS_TYPE": 0, "CLASSIFICATION_TYPE": "U", "NORAD_CAT_ID": 67007, "ELEMENT_SET_NO": 999, "REV_AT_EPOCH": 238, "BSTAR": -0.0021833236, "MEAN_MOTION_DOT": -0.00955528, "MEAN_MOTION_DDOT": 0.00029321675}, "tle": {"line1": "1 67007U 25293E   25351.83335648 -.00955528  29322-3 -21833-2 0  9993", "line2": "2 67007  69.9936 309.0320 0004110 265.4955 116.6939 15.97188271  2380"}}, "geometry": {"type": "Point", "coordinates": [164.60368127087278, -59.62176702512961]}}]}